[{"OBJECT_NAME":"HEAD-3E","OBJECT_ID":"2023-121E","EPOCH":"2026-03-09T23:59:07.461888","MEAN_MOTION":14.63663641,"ECCENTRICITY":0.00059847,"INCLINATION":45.0019,"RA_OF_ASC_NODE":57.8251,"ARG_OF_PERICENTER":100.8925,"MEAN_ANOMALY":259.2607,"EPHEMERIS_TYPE":0,"CLASSIFICATION_TYPE":"U","NORAD_CAT_ID":57630,"ELEMENT_SET_NO":999,"REV_AT_EPOCH":13735,"BSTAR":0.00024519246,"MEAN_MOTION_DOT":1.125e-5,"MEAN_MOTION_DDOT":0},{"OBJECT_NAME":"FENGYUN 1C DEB","OBJECT_ID":"1999-025BCZ","EPOCH":"2026-03-09T10:26:59.769600","MEAN_MOTION":14.60881594,"ECCENTRICITY":0.00653002,"INCLINATION":98.0954,"RA_OF_ASC_NODE":63.1258,"ARG_OF_PERICENTER":124.7521,"MEAN_ANOMALY":235.9851,"EPHEMERIS_TYPE":0,"CLASSIFICATION_TYPE":"U","NORAD_CAT_ID":31007,"ELEMENT_SET_NO":999,"REV_AT_EPOCH":99359,"BSTAR":0.0021263569,"MEAN_MOTION_DOT":0.00010686,"MEAN_MOTION_DDOT":0}]
